[{"OBJECT_NAME":"STARLINK-3126","OBJECT_ID":"2021-104AN","EPOCH":"2026-03-09T16:21:30.470688","MEAN_MOTION":15.08840954,"ECCENTRICITY":0.00012498,"INCLINATION":53.2177,"RA_OF_ASC_NODE":209.1691,"ARG_OF_PERICENTER":91.4713,"MEAN_ANOMALY":268.6423,"EPHEMERIS_TYPE":0,"CLASSIFICATION_TYPE":"U","NORAD_CAT_ID":49444,"ELEMENT_SET_NO":999,"REV_AT_EPOCH":23891,"BSTAR":9.480202e-6,"MEAN_MOTION_DOT":-1.37e-6,"MEAN_MOTION_DDOT":0},{"OBJECT_NAME":"PSLV R\/B","OBJECT_ID":"2010-035F","EPOCH":"2026-03-09T21:32:02.806944","MEAN_MOTION":15.11637156,"ECCENTRICITY":0.00120112,"INCLINATION":97.9796,"RA_OF_ASC_NODE":355.2302,"ARG_OF_PERICENTER":197.9598,"MEAN_ANOMALY":162.1208,"EPHEMERIS_TYPE":0,"CLASSIFICATION_TYPE":"U","NORAD_CAT_ID":36800,"ELEMENT_SET_NO":999,"REV_AT_EPOCH":85407,"BSTAR":0.00037264097,"MEAN_MOTION_DOT":6.275e-5,"MEAN_MOTION_DDOT":0}]
